{"type": "FeatureCollection", "features": [{"type": "Feature", "geometry": {"type": "Polygon", "coordinates": [[[-60.3578, -1.9545], [-60.2974, -1.9574], [-60.2671, -1.9865], [-60.2047, -2.004], [-60.1487, -2.0421], [-60.0913, -2.06], [-60.0835, -2.0764], [-60.0005, -2.1202], [-59.9561, -2.1173], [-59.8843, -2.1303], [-59.8027, -2.161], [-59.7519, -2.2149], [-59.7123, -2.1856], [-59.7009, -2.1635], [-59.7146, -2.0993], [-59.7095, -2.0519], [-59.6767, -2.0515], [-59.6771, -2.1119], [-59.6234, -2.1414], [-59.6086, -2.1764], [-59.5717, -2.182], [-59.5571, -2.2214], [-59.52, -2.2518], [-59.5064, -2.3053], [-59.4505, -2.3235], [-59.4278, -2.3711], [-59.3883, -2.362], [-59.3479, -2.3701], [-59.2909, -2.434], [-59.2768, -2.4801], [-59.272, -2.4476], [-59.173, -2.3858], [-59.1333, -2.3413], [-59.1096, -2.2974], [-59.0824, -2.276], [-59.1294, -2.2237], [-59.1442, -2.2497], [-59.1787, -2.2102], [-59.1796, -2.1851], [-59.1438, -2.1719], [-59.1284, -2.1007], [-59.1128, -2.0773], [-59.1241, -2.0073], [-59.1623, -1.9855], [-59.1613, -1.9602], [-59.2018, -1.9404], [-59.2038, -1.918], [-59.2517, -1.8332], [-59.2267, -1.8265], [-59.196, -1.7108], [-59.1403, -1.6431], [-59.1276, -1.6075], [-59.1565, -1.5453], [-59.1514, -1.5159], [-59.1866, -1.473], [-59.1914, -1.4464], [-59.2705, -1.4312], [-59.2962, -1.4541], [-59.3054, -1.4839], [-59.3598, -1.459], [-59.4378, -1.4348], [-59.4863, -1.454], [-59.5194, -1.4329], [-59.5041, -1.3894], [-59.4681, -1.3355], [-59.4425, -1.3193], [-59.4404, -1.2853], [-59.3734, -1.2367], [-59.3797, -1.1477], [-59.3806, -1.1067], [-59.6056, -1.1095], [-59.6311, -1.0811], [-59.6696, -1.0661], [-59.7012, -1.1048], [-59.7175, -1.0799], [-59.7866, -1.0453], [-59.8426, -0.9682], [-59.8562, -0.9116], [-59.8941, -0.8958], [-59.9308, -0.8517], [-59.9763, -0.8332], [-60.0118, -0.7913], [-60.0302, -0.7284], [-60.0543, -0.676], [-60.0224, -0.6172], [-60.0384, -0.5965], [-60.0009, -0.5696], [-59.9676, -0.5689], [-59.9541, -0.5156], [-59.8929, -0.4554], [-59.8702, -0.4693], [-59.8313, -0.4113], [-59.8532, -0.3921], [-59.8387, -0.2676], [-59.8105, -0.23], [-59.8476, -0.1818], [-59.9134, -0.1501], [-59.9194, -0.126], [-59.8804, -0.0961], [-59.8645, -0.0466], [-59.9169, 0.0335], [-59.9427, 0.0158], [-59.9359, -0.0392], [-59.9765, -0.0626], [-60.0235, -0.0431], [-60.0825, -0.0481], [-60.1226, -0.0797], [-60.18, -0.0855], [-60.2276, -0.1217], [-60.223, -0.1389], [-60.2688, -0.1765], [-60.2913, -0.2127], [-60.305, -0.2603], [-60.3064, -0.3175], [-60.3268, -0.3809], [-60.3489, -0.411], [-60.3465, -0.4379], [-60.3845, -0.4622], [-60.4001, -0.5175], [-60.3798, -0.5889], [-60.3603, -0.5984], [-60.3054, -0.6665], [-60.3033, -0.688], [-60.3467, -0.7396], [-60.3714, -0.7318], [-60.425, -0.7706], [-60.4749, -0.7616], [-60.4978, -0.7807], [-60.5029, -0.8407], [-60.5362, -0.8695], [-60.588, -0.8433], [-60.6635, -0.8812], [-60.6843, -0.8655], [-60.762, -0.8486], [-60.795, -1.0236], [-60.7582, -1.0675], [-60.7835, -1.0883], [-60.8278, -1.0914], [-60.8268, -1.1249], [-60.8559, -1.2167], [-60.8548, -1.26], [-60.9045, -1.2512], [-60.9475, -1.2776], [-60.9632, -1.3075], [-60.9229, -1.3155], [-60.8903, -1.3086], [-60.8827, -1.3334], [-60.8476, -1.3593], [-60.8364, -1.4069], [-60.8542, -1.4343], [-60.8321, -1.4613], [-60.7805, -1.4396], [-60.7504, -1.4456], [-60.6703, -1.4888], [-60.6159, -1.5248], [-60.582, -1.5718], [-60.5812, -1.604], [-60.6132, -1.6457], [-60.6262, -1.691], [-60.6162, -1.7235], [-60.6253, -1.786], [-60.6094, -1.8355], [-60.6171, -1.8613], [-60.5737, -1.9136], [-60.4815, -1.9182], [-60.4446, -1.9496], [-60.3578, -1.9545]]]}, "properties": {"codarea": "1303536"}}, {"type": "Feature", "geometry": {"type": "Polygon", "coordinates": [[[-46.826, -19.7746], [-46.836, -19.7454], [-46.7618, -19.6754], [-46.7415, -19.6188], [-46.8174, -19.5756], [-46.8588, -19.5413], [-46.8623, -19.5057], [-46.9063, -19.482], [-46.9313, -19.478], [-46.9422, -19.4447], [-46.9908, -19.4319], [-47.0175, -19.4436], [-47.0104, -19.4867], [-47.0792, -19.5617], [-47.1193, -19.5581], [-47.1375, -19.5361], [-47.1681, -19.5463], [-47.2064, -19.5893], [-47.2342, -19.6422], [-47.1316, -19.6762], [-47.0713, -19.6882], [-47.085, -19.7397], [-47.1077, -19.7673], [-47.0819, -19.7848], [-47.0735, -19.8368], [-47.0428, -19.8087], [-47.0149, -19.8066], [-46.977, -19.7794], [-46.8713, -19.787], [-46.826, -19.7746]]]}, "properties": {"codarea": "3104007"}}, {"type": "Feature", "geometry": {"type": "Polygon", "coordinates": [[[-46.4218, -21.7327], [-46.4618, -21.7572], [-46.4617, -21.7137], [-46.5262, -21.6863], [-46.5258, -21.6477], [-46.5547, -21.6534], [-46.5646, -21.6787], [-46.6145, -21.6765], [-46.6307, -21.7686], [-46.6907, -21.8376], [-46.666, -21.8484], [-46.6475, -21.8805], [-46.6738, -21.9111], [-46.6428, -21.9766], [-46.6179, -21.995], [-46.6027, -21.9587], [-46.5653, -21.9333], [-46.5247, -21.9246], [-46.5277, -21.8756], [-46.4909, -21.8477], [-46.4652, -21.806], [-46.4222, -21.7955], [-46.3986, -21.7591], [-46.4218, -21.7327]]]}, "properties": {"codarea": "3151800"}}, {"type": "Feature", "geometry": {"type": "Polygon", "coordinates": [[[-48.1203, -13.6284], [-48.1074, -13.5621], [-48.1325, -13.5042], [-48.1988, -13.4711], [-48.1483, -13.4397], [-48.148, -13.3793], [-48.1666, -13.3729], [-48.1699, -13.3003], [-48.1533, -13.2797], [-48.1668, -13.2326], [-48.1659, -13.1893], [-48.1437, -13.1525], [-48.1802, -13.152], [-48.2352, -13.1761], [-48.2921, -13.22], [-48.3417, -13.2317], [-48.3848, -13.2642], [-48.4619, -13.2752], [-48.477, -13.178], [-48.4686, -13.1587], [-48.5161, -13.1391], [-48.5304, -13.1923], [-48.5537, -13.2042], [-48.554, -13.3034], [-48.5801, -13.3133], [-48.5603, -13.3876], [-48.5813, -13.4132], [-48.5515, -13.4326], [-48.5802, -13.4961], [-48.6269, -13.5353], [-48.6441, -13.5728], [-48.6864, -13.5938], [-48.7014, -13.6385], [-48.6619, -13.6457], [-48.6425, -13.6191], [-48.5919, -13.6299], [-48.5715, -13.5951], [-48.5332, -13.5961], [-48.507, -13.6142], [-48.462, -13.6169], [-48.4665, -13.6634], [-48.4339, -13.7283], [-48.4371, -13.7585], [-48.3936, -13.7964], [-48.3826, -13.8248], [-48.3467, -13.8624], [-48.3318, -13.8365], [-48.2821, -13.8319], [-48.251, -13.8579], [-48.2076, -13.8222], [-48.1967, -13.7905], [-48.1379, -13.7547], [-48.1475, -13.7033], [-48.1431, -13.6527], [-48.1203, -13.6284]]]}, "properties": {"codarea": "5213087"}}, {"type": "Feature", "geometry": {"type": "Polygon", "coordinates": [[[-47.1981, -13.8616], [-47.1714, -13.915], [-47.1756, -13.9531], [-47.1943, -13.9657], [-47.1497, -14.0158], [-47.1265, -14.0877], [-47.1141, -14.097], [-47.0389, -14.0321], [-46.9855, -14.0525], [-46.9944, -14.0821], [-46.9376, -14.103], [-46.9017, -14.0788], [-46.876, -14.0337], [-46.8274, -14.0317], [-46.8511, -13.9858], [-46.8377, -13.9684], [-46.8372, -13.9107], [-46.867, -13.8877], [-46.825, -13.8445], [-46.8484, -13.8195], [-46.8182, -13.799], [-46.8371, -13.7635], [-46.785, -13.703], [-46.8083, -13.6763], [-46.7999, -13.6559], [-46.8515, -13.6317], [-46.8509, -13.6146], [-46.9044, -13.5858], [-46.9277, -13.5913], [-46.9467, -13.5611], [-47.0509, -13.5262], [-47.0795, -13.4953], [-47.068, -13.446], [-47.1002, -13.4319], [-47.1267, -13.4398], [-47.1434, -13.5104], [-47.1379, -13.5667], [-47.1624, -13.6313], [-47.1579, -13.6713], [-47.1942, -13.7229], [-47.2035, -13.7729], [-47.1909, -13.7954], [-47.1981, -13.8616]]]}, "properties": {"codarea": "5214903"}}]}